#Pass ID: 20250117_065026_METOP-C
#Satellite: METOP-C
#Configuration: METOP-C
#Start time: 2025-01-17 06:50:31.356986

#LorettStation: 1.0.0 05.05.2024
#Station: Regia
#Location: 37.494653 lon 55.929028 lat
#TLE: 1 43689U 18087A   25016.13723724  .00000217  00000+0  11924-3 0  9996
#TLE: 2 43689  98.6963  78.6125 0001472 162.3188 197.8041 14.21481582321377

#Time	Az	El	Level	SNR
#Closed at: 2025-01-17 06:50:26.358923